{"type":"FeatureCollection","features":[{"type":"Feature","geometry":{"type":"MultiPolygon","coordinates":[[[[144.7314,-38.3502],[144.7314,-38.3504],[144.7315,-38.3504],[144.7314,-38.3502]]],[[[144.734,-38.3525],[144.7344,-38.3522],[144.7341,-38.3523],[144.734,-38.3525]]],[[[144.7361,-38.3545],[144.7363,-38.3544],[144.7361,-38.3543],[144.7361,-38.3545]]],[[[144.7399,-38.3561],[144.7401,-38.3557],[144.7399,-38.3559],[144.7399,-38.3561]]],[[[144.7401,-38.3573],[144.7404,-38.3571],[144.7401,-38.357],[144.7401,-38.3573]]],[[[144.7403,-38.3585],[144.7403,-38.3583],[144.7402,-38.3584],[144.7403,-38.3585]]],[[[144.7404,-38.356],[144.7411,-38.3559],[144.7407,-38.3558],[144.7404,-38.356]]],[[[144.7408,-38.3583],[144.7407,-38.3581],[144.7405,-38.3582],[144.7408,-38.3583]]],[[[144.7876,-38.3936],[144.7878,-38.3936],[144.7878,-38.3934],[144.7876,-38.3936]]],[[[144.8845,-38.496],[144.8848,-38.4956],[144.8845,-38.4957],[144.8845,-38.496]]],[[[144.8851,-38.4964],[144.8853,-38.496],[144.8847,-38.4959],[144.8851,-38.4964]]],[[[144.8856,-38.4957],[144.8856,-38.4956],[144.8854,-38.4956],[144.8856,-38.4957]]],[[[144.8857,-38.497],[144.8858,-38.4969],[144.8856,-38.4969],[144.8857,-38.497]]],[[[144.8858,-38.4952],[144.8859,-38.4951],[144.8857,-38.4951],[144.8858,-38.4952]]],[[[144.8858,-38.4947],[144.886,-38.4945],[144.8858,-38.4946],[144.8858,-38.4947]]],[[[144.886,-38.4974],[144.8861,-38.4972],[144.8858,-38.4973],[144.886,-38.4974]]],[[[144.8883,-38.5026],[144.8881,-38.503],[144.8886,-38.5027],[144.8883,-38.5026]]],[[[144.8888,-38.5005],[144.8895,-38.5008],[144.8897,-38.5001],[144.8888,-38.5005]]],[[[144.8944,-38.4936],[144.8945,-38.4933],[144.8943,-38.4932],[144.8944,-38.4936]]],[[[144.9061,-38.4934],[144.9069,-38.493],[144.9062,-38.4931],[144.9061,-38.4934]]],[[[144.9068,-38.4936],[144.9073,-38.4937],[144.9074,-38.4934],[144.9068,-38.4936]]],[[[144.9072,-38.4929],[144.907,-38.4928],[144.9074,-38.4931],[144.9072,-38.4929]]],[[[144.5916,-38.0044],[144.6516,-38.0016],[144.6883,-37.9736],[144.7024,-37.9711],[144.7356,-37.9431],[144.761,-37.9373],[144.7746,-37.9289],[144.7935,-37.927],[144.7992,-37.9231],[144.7975,-37.9067],[144.8076,-37.8913],[144.8077,-37.8806],[144.8196,-37.8725],[144.8402,-37.8715],[144.8686,-37.8587],[144.8786,-37.8681],[144.9081,-37.8707],[144.9155,-37.8655],[144.9039,-37.8617],[144.8954,-37.849],[144.9056,-37.8517],[144.8995,-37.8488],[144.8972,-37.8441],[144.9039,-37.85],[144.8992,-37.8404],[144.9072,-37.8495],[144.903,-37.8395],[144.9065,-37.8394],[144.9126,-37.85],[144.9173,-37.8475],[144.9134,-37.842],[144.9269,-37.84],[144.9252,-37.845],[144.9307,-37.8423],[144.9299,-37.8473],[144.9356,-37.8425],[144.9703,-37.8608],[144.9757,-37.8821],[144.9859,-37.8932],[144.9855,-37.9262],[144.998,-37.9381],[144.9991,-37.9417],[144.9922,-37.94],[144.9931,-37.9441],[145.0102,-37.9612],[145.0093,-37.9694],[145.018,-37.9818],[145.0308,-37.9946],[145.0383,-37.9964],[145.0514,-37.9867],[145.0721,-37.9973],[145.0995,-38.0269],[145.1196,-38.0732],[145.1254,-38.071],[145.1198,-38.0741],[145.1232,-38.1241],[145.1131,-38.1511],[145.0967,-38.1634],[145.0876,-38.1642],[145.0617,-38.2012],[145.045,-38.2134],[145.0324,-38.2127],[145.0317,-38.2236],[145.0255,-38.2265],[145.0286,-38.239],[145.0256,-38.2533],[145.0081,-38.2701],[145.0013,-38.2709],[144.9828,-38.2964],[144.9943,-38.3045],[144.9884,-38.3167],[144.9685,-38.3303],[144.9232,-38.3492],[144.8509,-38.3687],[144.8147,-38.3685],[144.7667,-38.3564],[144.7635,-38.3483],[144.7455,-38.3399],[144.7341,-38.3225],[144.7073,-38.3178],[144.6802,-38.3052],[144.6672,-38.3081],[144.6514,-38.3027],[144.6903,-38.3288],[144.7418,-38.3539],[144.7533,-38.3677],[144.7671,-38.374],[144.8389,-38.4306],[144.8867,-38.4772],[144.8838,-38.491],[144.8881,-38.4993],[144.8947,-38.4914],[144.9112,-38.4892],[144.9186,-38.497],[144.9374,-38.4971],[144.9488,-38.4885],[144.9673,-38.4867],[144.9766,-38.4903],[145.011,-38.4796],[145.0313,-38.4871],[145.0251,-38.4753],[145.0472,-38.4338],[145.0663,-38.4251],[145.0764,-38.4254],[145.079,-38.4162],[145.0964,-38.4024],[145.1118,-38.4009],[145.1163,-38.3951],[145.1344,-38.3902],[145.2346,-38.4096],[145.2283,-38.3986],[145.2178,-38.3939],[145.2152,-38.3831],[145.184,-38.3746],[145.1927,-38.373],[145.1964,-38.3666],[145.2109,-38.3787],[145.222,-38.3778],[145.2234,-38.3733],[145.2135,-38.3659],[145.2188,-38.3476],[145.1983,-38.3338],[145.1929,-38.3245],[145.1916,-38.3206],[145.198,-38.3212],[145.1952,-38.3145],[145.2005,-38.3117],[145.1929,-38.2965],[145.1999,-38.2966],[145.2,-38.2931],[145.2062,-38.3038],[145.223,-38.3064],[145.228,-38.2922],[145.221,-38.2871],[145.2257,-38.2724],[145.2501,-38.2473],[145.2617,-38.2424],[145.2533,-38.2357],[145.2553,-38.2264],[145.2513,-38.2267],[145.2548,-38.223],[145.2716,-38.223],[145.2786,-38.2344],[145.2741,-38.2441],[145.2983,-38.2485],[145.3248,-38.2421],[145.3264,-38.2351],[145.3326,-38.2361],[145.3413,-38.2296],[145.3402,-38.2187],[145.3471,-38.2136],[145.3656,-38.2221],[145.3897,-38.2224],[145.3877,-38.2187],[145.3919,-38.2241],[145.4109,-38.228],[145.4248,-38.216],[145.4525,-38.2187],[145.46,-38.228],[145.489,-38.2334],[145.498,-38.2741],[145.518,-38.2909],[145.5207,-38.3067],[145.5418,-38.3094],[145.5458,-38.2913],[145.5537,-38.2936],[145.5821,-38.3127],[145.5936,-38.3301],[145.6057,-38.3324],[145.6125,-38.2856],[145.6189,-38.2891],[145.6386,-38.2825],[145.6803,-38.2896],[145.6815,-38.2822],[145.6909,-38.2831],[145.6896,-38.2901],[145.6987,-38.2911],[145.6997,-38.2856],[145.7327,-38.2894],[145.7364,-38.249],[145.7128,-38.2518],[145.7174,-38.2067],[145.7008,-38.2059],[145.7029,-38.1948],[145.7297,-38.154],[145.7485,-38.1428],[145.7628,-38.1089],[145.7392,-38.1005],[145.7472,-38.0916],[145.7453,-38.0861],[145.7544,-38.0792],[145.7553,-38.0316],[145.7649,-38.0189],[145.7651,-38.0108],[145.7617,-37.989],[145.7396,-37.9718],[145.7311,-37.9588],[145.747,-37.9383],[145.7413,-37.9271],[145.7643,-37.9013],[145.7695,-37.8809],[145.8042,-37.8735],[145.8033,-37.8607],[145.8107,-37.8645],[145.8176,-37.8577],[145.8046,-37.8516],[145.8112,-37.8361],[145.8039,-37.826],[145.7938,-37.8263],[145.795,-37.8151],[145.8042,-37.814],[145.8096,-37.8075],[145.8292,-37.8121],[145.8408,-37.7979],[145.8571,-37.8008],[145.8657,-37.8076],[145.8784,-37.7993],[145.8461,-37.7557],[145.8365,-37.7528],[145.7997,-37.7175],[145.7881,-37.7215],[145.7865,-37.7088],[145.811,-37.6874],[145.8082,-37.6764],[145.7925,-37.66],[145.801,-37.6558],[145.8122,-37.6622],[145.8054,-37.6402],[145.8126,-37.6297],[145.7654,-37.6168],[145.7572,-37.5944],[145.7607,-37.5873],[145.7546,-37.5801],[145.756,-37.5743],[145.7382,-37.5666],[145.7306,-37.5821],[145.7373,-37.594],[145.6759,-37.6242],[145.6593,-37.6178],[145.6469,-37.594],[145.6299,-37.5856],[145.618,-37.5723],[145.6025,-37.576],[145.6019,-37.5673],[145.5948,-37.5658],[145.5789,-37.5704],[145.5763,-37.5602],[145.5619,-37.5473],[145.5701,-37.5489],[145.5751,-37.5449],[145.5604,-37.5299],[145.5649,-37.466],[145.5699,-37.4604],[145.513,-37.4571],[145.5168,-37.4372],[145.4946,-37.4374],[145.4886,-37.4613],[145.4202,-37.4606],[145.4175,-37.4679],[145.3909,-37.4665],[145.387,-37.4565],[145.4035,-37.4571],[145.4132,-37.4454],[145.4003,-37.4441],[145.4003,-37.4344],[145.383,-37.4345],[145.3829,-37.4296],[145.3321,-37.4299],[145.3321,-37.4143],[145.3183,-37.4144],[145.3182,-37.4097],[145.2976,-37.4119],[145.2931,-37.4198],[145.2797,-37.4175],[145.2745,-37.4097],[145.2658,-37.4098],[145.2658,-37.3727],[145.2579,-37.3715],[145.2485,-37.3487],[145.2369,-37.3446],[145.2344,-37.3271],[145.2267,-37.3271],[145.2273,-37.2942],[145.1253,-37.2939],[145.1209,-37.2764],[145.1249,-37.2764],[145.1251,-37.269],[145.1167,-37.2669],[145.1176,-37.2632],[145.0561,-37.2635],[145.0539,-37.2997],[145.0484,-37.3156],[145.0304,-37.3296],[144.9997,-37.3311],[144.9911,-37.3413],[144.9318,-37.338],[144.9211,-37.3326],[144.9179,-37.348],[144.8922,-37.3452],[144.8851,-37.3346],[144.8778,-37.3371],[144.8645,-37.3242],[144.8585,-37.3267],[144.8492,-37.3223],[144.8558,-37.2855],[144.8457,-37.2901],[144.8252,-37.2841],[144.8223,-37.272],[144.829,-37.2357],[144.8167,-37.2302],[144.8201,-37.2192],[144.8035,-37.2121],[144.7857,-37.2131],[144.7777,-37.2198],[144.7776,-37.215],[144.7696,-37.2151],[144.7688,-37.2207],[144.7314,-37.2205],[144.7038,-37.2129],[144.7161,-37.2088],[144.7141,-37.1765],[144.6937,-37.1751],[144.6902,-37.1852],[144.6793,-37.184],[144.6749,-37.1774],[144.6588,-37.1808],[144.6583,-37.1876],[144.6538,-37.1874],[144.6573,-37.1957],[144.6519,-37.1951],[144.6497,-37.2071],[144.6355,-37.2118],[144.6347,-37.2161],[144.6277,-37.2153],[144.6489,-37.2213],[144.6365,-37.2232],[144.6136,-37.2425],[144.5972,-37.2406],[144.5919,-37.248],[144.5919,-37.2548],[144.6181,-37.2572],[144.6182,-37.2622],[144.6269,-37.2653],[144.6221,-37.2733],[144.6263,-37.2738],[144.6246,-37.2832],[144.6437,-37.2857],[144.6426,-37.2918],[144.6602,-37.293],[144.6567,-37.3],[144.6488,-37.3],[144.6389,-37.3113],[144.6343,-37.3363],[144.6144,-37.3321],[144.6044,-37.3355],[144.6003,-37.3595],[144.5759,-37.3589],[144.5738,-37.3694],[144.569,-37.3689],[144.5616,-37.3855],[144.5455,-37.3828],[144.5454,-37.3894],[144.5363,-37.3999],[144.5222,-37.4025],[144.5129,-37.4151],[144.5009,-37.4176],[144.4948,-37.4102],[144.4873,-37.4121],[144.4867,-37.4164],[144.4782,-37.4142],[144.4593,-37.4971],[144.4699,-37.5076],[144.4691,-37.5212],[144.4629,-37.5294],[144.4658,-37.5367],[144.458,-37.5423],[144.4596,-37.549],[144.4532,-37.5548],[144.4562,-37.5582],[144.4471,-37.5683],[144.4527,-37.5737],[144.4493,-37.5787],[144.453,-37.5871],[144.4485,-37.5918],[144.4331,-37.5889],[144.4293,-37.5915],[144.4321,-37.5941],[144.4207,-37.5928],[144.4202,-37.5961],[144.4284,-37.597],[144.4218,-37.6016],[144.4232,-37.6136],[144.3848,-37.6067],[144.3958,-37.6186],[144.3942,-37.6295],[144.4021,-37.6397],[144.354,-37.6335],[144.3377,-37.6186],[144.3396,-37.6287],[144.3336,-37.6374],[144.3567,-37.6478],[144.3582,-37.6517],[144.3457,-37.6581],[144.3566,-37.6694],[144.3705,-37.675],[144.3682,-37.6875],[144.3926,-37.6962],[144.3898,-37.708],[144.3969,-37.7088],[144.3954,-37.7172],[144.4047,-37.7169],[144.4027,-37.7278],[144.4147,-37.7242],[144.4159,-37.7183],[144.4628,-37.706],[144.4648,-37.692],[144.4867,-37.6951],[144.4855,-37.7045],[144.4906,-37.7057],[144.4669,-37.8391],[144.449,-37.837],[144.4441,-37.864],[144.4547,-37.8676],[144.4693,-37.8842],[144.4729,-37.8828],[144.472,-37.8878],[144.4808,-37.8903],[144.4848,-37.909],[144.4781,-37.9108],[144.4769,-37.9221],[144.4826,-37.9233],[144.475,-37.9281],[144.474,-37.9357],[144.4814,-37.9442],[144.4772,-37.9453],[144.4799,-37.9499],[144.4965,-37.9642],[144.4956,-37.9743],[144.5071,-37.9738],[144.5086,-37.9783],[144.5187,-37.981],[144.5241,-37.9734],[144.5476,-37.9719],[144.5546,-37.9848],[144.5678,-37.9845],[144.5734,-37.9992],[144.5916,-38.0044]]],[[[145.2129,-38.3289],[145.2094,-38.3268],[145.2085,-38.3329],[145.2129,-38.3289]]]]},"properties":{"GCCSA_CODE_2026":"2GMEL","GCCSA_NAME_2026":"Greater Melbourne"}}]}